#cP2017 11 19  0  0  0.00000000      96 ORBIT IGS14 HLM  IGS
## 1976      0.00000000   900.00000000 58076 0.0000000000000
+   32   G01G02G03G04G05G06G07G08G09G10G11G12G13G14G15G16G17
+        G18G19G20G21G22G23G24G25G26G27G28G29G30G31G32  0  0
+          0  0  0  0  0  0  0  0  0  0  0  0  0  0  0  0  0
+          0  0  0  0  0  0  0  0  0  0  0  0  0  0  0  0  0
+          0  0  0  0  0  0  0  0  0  0  0  0  0  0  0  0  0
++         2  2  2  0  2  2  2  2  2  2  2  2  2  2  2  2  2
++         2  2  2  2  2  2  2  2  2  2  2  2  2  2  2  0  0
++         0  0  0  0  0  0  0  0  0  0  0  0  0  0  0  0  0
++         0  0  0  0  0  0  0  0  0  0  0  0  0  0  0  0  0
++         0  0  0  0  0  0  0  0  0  0  0  0  0  0  0  0  0
%c G  cc GPS ccc cccc cccc cccc cccc ccccc ccccc ccccc ccccc
%c cc cc ccc ccc cccc cccc cccc cccc ccccc ccccc ccccc ccccc
%f  1.2500000  1.025000000  0.00000000000  0.000000000000000
%f  0.0000000  0.000000000  0.00000000000  0.000000000000000
%i    0    0    0    0      0      0      0      0         0
%i    0    0    0    0      0      0      0      0         0
/* RAPID ORBIT COMBINATION FROM WEIGHTED AVERAGE OF:        
/* cod emr esa gfz jpl ngs sio usn whu                      
/* REFERENCED TO IGS TIME (IGST) AND TO WEIGHTED MEAN POLE: 
/* PCV:IGS14_1973 OL/AL:FES2004  NONE     Y  ORB:CMB CLK:CMB
*  2017 11 19  6  0  0.00000000
PG01  13211.365933 -22561.091080  -3869.883053    -11.293466  5  6  6  45       
PG02 -19045.071623   8980.167836 -15478.370615    277.153769  5  5  6 102       
PG03   9155.324001 -13715.598226 -20831.082777    -39.938598  6  8  6  69       
PG04  18129.987373   5298.178367  18706.220154 999999.999999
PG05 -25267.468015   3425.910321   7700.025687    -22.291727  2  6  6  89       
PG06 -15299.688265  -3838.842002 -21351.502186    410.389977  4  6  5  85       
PG07    863.603979 -20573.868507  16725.486794    277.556388  4  9  5  77       
PG08  10017.658516 -12816.376145  21029.266545    -81.126966  2  5  4  91       
PG09  -7132.119452 -24967.388735  -5602.298995    473.320136  4  3  4  97       
PG10  20759.005035  10946.031886  12593.336061    113.645253  6  6  6  79       
PG11   9450.821790 -24242.877003   5075.162368   -727.056988  5  6  7  83       
PG12 -13040.909886  11380.756545 -20252.067701    364.184477  2  7  5  69       
PG13 -14186.055524   4802.488023  21819.340542    -94.081767  5  5    112       
PG14  16588.600927  12561.845752 -16323.590504    -88.867336     8  7 114       
PG15  -8415.622672  15333.861903  19689.469579   -357.212005  3  5  5  88       
PG16  25174.829314  -1290.662836   8868.056490     36.270248     7  5  65       
PG17 -14431.610498 -20287.200157  -9090.703181   -143.595160  5  6  4  85       
PG18  10635.072671  15302.694709  19577.349393    632.826566  4  9  5  90       
PG19 -16168.678767 -13285.797309 -16503.703461   -474.800963  4  6  6  99       
PG20 -12701.667143  13917.943173  18554.906058    493.183532  4  5  5  95       
PG21   2819.205646  19817.511152  18218.322627   -460.755933  5  7  4  81       
PG22  16966.858806 -11660.394761 -16559.858841   -193.991810  7  6  7 105       
PG23   1595.651496 -21761.269888 -14584.957195   -218.726660  8  7  5 108       
PG24 -14278.843883  22212.113124   -654.129759    -42.382124  4  6  3 103       
PG25   1207.836147  15100.922025 -21987.434768   -491.953397  4  5  5  96       
PG26  26254.088136   3826.447484  -2146.640600   -356.904232  3  5  5  79       
PG27  15901.389731    307.814893  21252.671357    349.001375  3  3  5  96       
PG28 -16824.851837 -13824.405873  15829.871400    663.792968  4  8  5  85       
PG29   2179.733566  24536.578725  -9962.060728    536.379133  5 10  5 108       
PG30  -7865.710091 -14270.728097  20957.812229    126.951204  1  6  5 101       
PG31  16632.607702   1847.471247 -20655.148651    161.147933  5  6  2 107       
PG32  16520.968940  17738.867803 -10902.597490   -524.457145  2  6  6  94       
*  2017 11 19  6 15  0.00000000
PG01  13568.107702 -22639.400391   -998.837210    -11.295646  4  6  7  82       
PG02 -18209.317073   7173.005958 -17289.229819    277.145024  5  5  6 113       
PG03  11466.576326 -13458.851862 -19825.437811    -39.933563  6  8  6  88       
PG04  19100.024324   7126.162357  17128.783836 999999.999999
PG05 -25988.973028   3119.723194   5009.960675    -22.290639  2  6  6 112       
PG06 -13954.184762  -5910.746676 -21794.397424    410.391390  4  6  4  94       
PG07   2050.470357 -21919.473267  14733.985607    277.551600  4  9  5  85       
PG08  11155.553695 -10668.244271  21658.081566    -81.128065  2  5  4  92       
PG09  -6542.698249 -24376.787766  -8292.933334    473.324239  4  3  3  98       
PG10  19190.273560  11031.971838  14803.356926    113.652073  6  6  6  79       
PG11   9693.565629 -23385.369491   7672.786964   -727.058517  5  7  7  84       
PG12 -15216.135081  11004.097047 -18867.907548    364.182910  3  6  4  90       
PG13 -15001.451522   2427.916407  21666.061554    -94.082726  5  5  2 124       
PG14  17083.860157  14293.087070 -14312.991404    -88.868079     8  8 114       
PG15  -9716.676977  13360.669156  20537.467883   -357.212054  3  5  4  71       
PG16  26008.195644  -1024.188463   6153.405896     36.269923     7  5  81       
PG17 -14631.644947 -21209.231610  -6387.704220   -143.593507  5  7  4 100       
PG18   8442.917086  15371.813682  20580.493264    632.826881  4  9  5  99       
PG19 -16632.801657 -14958.061299 -14428.365163   -474.798810  3  6  6 109       
PG20 -14783.519703  13791.450199  17056.446022    493.184762  5  3  5  82       
PG21   1701.653658  21312.983026  16507.945964   -460.752056  4  8  5  88       
PG22  18798.705061 -11381.347493 -14700.498879   -194.003227  6  6  8 109       
PG23   2633.988968 -20220.926600 -16528.731780   -218.726652  8  6  5 106       
PG24 -14502.928666  21956.868406   2181.444163    -42.382579  5  6  4 116       
PG25  -1268.732998  14917.803100 -22090.025123   -491.958998  3  5  5 106       
PG26  25834.987477   4057.783126  -4950.822006   -356.891674  4  5  5  80       
PG27  16901.881406   2471.287748  20341.651260    349.004479  3  3  5  85       
PG28 -15021.018870 -13648.633530  17759.487685    663.795977  5  8  5  88       
PG29   1537.224950  23419.930092 -12458.494210    536.374594  5 10  5 102       
PG30  -6366.424180 -16091.033600  20118.611458    126.948804  2  6  6 104       
PG31  15261.350302   3829.958685 -21389.044979    161.145579  5  6  2 113       
PG32  16803.077124  18830.809644  -8352.323854   -524.459729  2  6  6  93       
*  2017 11 19  6 30  0.00000000
PG01  13752.503751 -22453.981239   1889.675811    -11.297858  4  6  7  93       
PG02 -17373.135041   5156.822668 -18787.099870    277.136500  6  5  6 121       
PG03  13655.434654 -13324.007888 -18478.813146    -39.928543  6  7  6  83       
PG04  20051.599197   8736.684912  15258.761646 999999.999999
PG05 -26416.863526   2849.274038   2234.527006    -22.289715  2  5  6 103       
PG06 -12706.427144  -8076.518026 -21861.656474    410.392764  5  5  4 106       
PG07   3043.048656 -23121.953041  12486.954035    277.546937  3  9  5  93       
PG08  12430.984530  -8541.559887  21915.722229    -81.128993  1  6  4  95       
PG09  -5776.293864 -23560.430871 -10840.948786    473.328347  5  4  2 119       
PG10  17392.562405  11198.008422  16760.584813    113.658902  5  6  6  99       
PG11   9939.684818 -22252.697060  10136.685210   -727.060125  4  7  7 100       
PG12 -17237.048733  10762.256719 -17161.255089    364.181487  4  5  4 105       
PG13 -15926.834640    135.915789  21135.927770    -94.082975  5  5  3 119       
PG14  17566.501422  15772.965750 -12053.719189    -88.868780     8  7 109       
PG15 -11147.536154  11388.964845  21023.883065   -357.212299  3  6  4  76       
PG16  26544.474711   -834.840713   3335.011087     36.269698  2  7  5  95       
PG17 -14743.869755 -21835.960325  -3574.554895   -143.591175  5  7  5 115       
PG18   6165.442604  15549.800762  21247.953543    632.827468  3  9  5 111       
PG19 -17087.029764 -16378.256565 -12106.380969   -474.796974  4  6  7 112       
PG20 -16682.459777  13745.361374  15260.839583    493.185346  5  3  5 109       
PG21    752.171274  22686.835111  14527.497970   -460.749477  3  9  6  94       
PG22  20414.706921 -11179.055046 -12584.659280   -194.014916  6  7  8 108       
PG23   3847.401395 -18554.665370 -18177.872681   -218.726910  8  5  5 115       
PG24 -14586.359885  21431.203917   4978.796088    -42.382552  5  6  5 121       
PG25  -3744.305940  14870.940974 -21817.843642   -491.964579  4  4  4 114       
PG26  25116.525888   4311.852615  -7670.325415   -356.879091  4  6  5  90       
PG27  17957.377340   4467.717219  19080.690164    349.007560  3  4  5  64       
PG28 -13016.965269 -13557.207849  19397.160194    663.798836  5  8  5  92       
PG29    714.559109  22097.320673 -14740.802401    536.369921  4  9  6 110       
PG30  -5022.402310 -17889.485113  18932.322101    126.946416  2  6  6 101       
PG31  13961.505784   5938.414651 -21754.607443    161.143753  5  6  3 116       
PG32  16994.234313  19649.036236  -5658.679367   -524.462344     6  6 101       
EOF
